0 ATLAS CENTAUR R/B
1 06779U 71116B   13281.95383548 -.00000031  00000-0  87359-3 0  3371
2 06779 028.1360 068.0019 7173252 242.4932 029.7652 02.19575762316823
0 ATLAS CENTAUR R/B
1 06779U 71116B   13282.00904468  .00000021  00000-0  21836-2 0  3384
2 06779 028.1214 068.0097 7173755 242.4762 073.3986 02.19574105316821
0 ATLAS CENTAUR R/B
1 06779U 71116B   13283.31941007  .00000022  00000-0  55019-3 0  3404
2 06779 028.1138 067.5703 7174261 243.1815 029.1895 02.19574670316852
0 ATLAS CENTAUR R/B
1 06779U 71116B   13286.50595494  .00000086  00000-0  23557-2 0  3392
2 06779 028.1143 066.5664 7173711 244.8386 028.0318 02.19574669316927
0 ATLAS CENTAUR R/B
1 06779U 71116B   13286.91455367  .00000078  00000-0  19690-2 0  3407
2 06779 028.1197 066.4688 7174240 244.9973 351.0187 02.19575005316931
0 ATLAS CENTAUR R/B
1 06779U 71116B   13289.22096444  .00000019  00000-0  48714-3 0  3417
2 06779 028.1188 065.7432 7174447 246.1838 014.1472 02.19576220316982
0 ATLAS CENTAUR R/B
1 06779U 71116B   13292.83387360 -.00000074  00000-0  29980-3 0  3425
2 06779 028.1176 064.6047 7174810 248.0426 350.0394 02.19576470317069
